NORAD_CAT_ID,OBJECT_NAME,OBJECT_TYPE,EPOCH,MEAN_MOTION,ECCENTRICITY,INCLINATION,RA_OF_ASC_NODE,ARG_OF_PERICENTER,MEAN_ANOMALY,BSTAR,MEAN_MOTION_DOT,MEAN_MOTION_DDOT,TLE_LINE0,TLE_LINE1,TLE_LINE2,SEMIMAJOR_AXIS,PERIOD,APOGEE,PERIGEE,DECAYED
51118.0,STARLINK-3394,PAYLOAD,2022-07-20 12:06:39,15.08845456,0.0002044999999999,53.2164,131.5661,50.1105,310.0066,0.00019783,2.862e-05,0.0,0 STARLINK-3394,1 51118U 22005Q   22201.50462882  .00002862  00000-0  19783-3 0  9996,2 51118  53.2164 131.5661 0002045  50.1105 310.0066 15.08845456 29479,6917.864000000001,95.437,541.143,538.314,0.0
51118.0,STARLINK-3394,PAYLOAD,2022-07-21 04:00:31,15.08838949,0.0001986999999999,53.2163,128.5917,49.6125,310.504,-2.6537e-05,-7.11e-06,0.0,0 STARLINK-3394,1 51118U 22005Q   22202.16703356 -.00000711  00000-0 -26537-4 0  9992,2 51118  53.2163 128.5917 0001987  49.6125 310.5040 15.08838949 29574,6917.884,95.438,541.123,538.374,0.0
51118.0,STARLINK-3394,PAYLOAD,2022-07-21 11:57:27,15.08841398,0.0002003,53.2163,127.1053,49.2679,310.8486,3.8921e-05,3.31e-06,0.0,0 STARLINK-3394,1 51118U 22005Q   22202.49823262  .00000331  00000-0  38921-4 0  9993,2 51118  53.2163 127.1053 0002003  49.2679 310.8486 15.08841398 28512,6917.876,95.437,541.127,538.355,0.0
51118.0,STARLINK-3394,PAYLOAD,2022-07-22 03:51:18,15.08839693,0.0002018,53.2168,124.132,44.8176,315.2979,-3.8529e-05,-9.01e-06,0.0,0 STARLINK-3394,1 51118U 22005Q   22203.16063517 -.00000901  00000-0 -38529-4 0  9996,2 51118  53.2168 124.1320 0002018  44.8176 315.2979 15.08839693 28612,6917.880999999999,95.438,541.1419999999998,538.35,0.0
51118.0,STARLINK-3394,PAYLOAD,2022-07-22 07:02:04,15.08845556,0.000193,53.2166,123.5366,46.755,313.3603,-0.0001220999999999,-2.231e-05,0.0,0 STARLINK-3394,1 51118U 22005Q   22203.29311142 -.00002231  00000-0 -12210-3 0  9996,2 51118  53.2166 123.5366 0001930  46.7550 313.3603 15.08845556 29745,6917.863,95.437,541.064,538.393,0.0
51118.0,STARLINK-3394,PAYLOAD,2022-07-22 11:48:13,15.08855064,0.0001821,53.2165,122.6446,45.4321,314.682,-0.00026132,-4.446e-05,0.0,0 STARLINK-3394,1 51118U 22005Q   22203.49182508 -.00004446  00000-0 -26132-3 0  9998,2 51118  53.2165 122.6446 0001821  45.4321 314.6820 15.08855064 29777,6917.834,95.437,540.9590000000002,538.44,0.0
51118.0,STARLINK-3394,PAYLOAD,2022-07-23 03:42:05,15.08840339,0.0001927,53.2166,119.6713,49.9255,310.1906,0.00010194,1.335e-05,0.0,0 STARLINK-3394,1 51118U 22005Q   22204.15423496  .00001335  00000-0  10194-3 0  9999,2 51118  53.2166 119.6713 0001927  49.9255 310.1906 15.08840339 29879,6917.879,95.438,541.077,538.411,0.0
51118.0,STARLINK-3394,PAYLOAD,2022-07-23 11:39:01,15.08841879,0.0001948,53.2166,118.1844,49.1201,310.996,0.00011009,1.464e-05,0.0,0 STARLINK-3394,1 51118U 22005Q   22204.48543421  .00001464  00000-0  11009-3 0  9995,2 51118  53.2166 118.1844 0001948  49.1201 310.9960 15.08841879 28815,6917.875,95.437,541.087,538.3919999999998,0.0
51118.0,STARLINK-3394,PAYLOAD,2022-07-24 11:29:48,15.08842551,0.0001903,53.2167,113.7241,51.5537,308.5625,0.00012907,1.767e-05,0.0,0 STARLINK-3394,1 51118U 22005Q   22205.47903655  .00001767  00000-0  12907-3 0  9998,2 51118  53.2167 113.7241 0001903  51.5537 308.5625 15.08842551 28963,6917.873000000001,95.437,541.054,538.4209999999998,0.0
51118.0,STARLINK-3394,PAYLOAD,2022-07-24 21:02:07,15.08840937,0.0001911,53.2167,111.9399,52.4349,307.6816,3.8097e-05,3.18e-06,0.0,0 STARLINK-3394,1 51118U 22005Q   22205.87647708  .00000318  00000-0  38097-4 0  9996,2 51118  53.2167 111.9399 0001911  52.4349 307.6816 15.08840937 29023,6917.878000000002,95.437,541.065,538.4209999999998,0.0
51118.0,STARLINK-3394,PAYLOAD,2022-07-25 03:23:41,15.08809559,0.0002121999999999,53.2167,110.7504,55.2356,304.8836,0.00067047,0.0001039,0.0,0 STARLINK-3394,1 51118U 22005Q   22206.14145570  .00010390  00000-0  67047-3 0  9994,2 51118  53.2167 110.7504 0002122  55.2356 304.8836 15.08809559 29062,6917.973000000001,95.439,541.306,538.37,0.0
51118.0,STARLINK-3394,PAYLOAD,2022-07-25 19:17:31,15.08835199,0.0001896,53.2175,107.777,51.5518,308.5644,0.0001107,1.474e-05,0.0,0 STARLINK-3394,1 51118U 22005Q   22206.80384255  .00001474  00000-0  11070-3 0  9990,2 51118  53.2175 107.7770 0001896  51.5518 308.5644 15.08835199 30270,6917.895,95.438,541.072,538.448,0.0
51118.0,STARLINK-3394,PAYLOAD,2022-07-26 04:49:51,15.08827797,0.0001885,53.2169,105.9932,49.5995,310.5161,-1.3855e-05,-5.09e-06,0.0,0 STARLINK-3394,1 51118U 22005Q   22207.20128937 -.00000509  00000-0 -13855-4 0  9992,2 51118  53.2169 105.9932 0001885  49.5995 310.5161 15.08827797 29222,6917.918000000002,95.438,541.087,538.479,0.0
51118.0,STARLINK-3394,PAYLOAD,2022-07-26 20:43:43,15.08829446,0.0001818,53.2172,103.0192,50.2523,309.8629,5.6605e-05,6.13e-06,0.0,0 STARLINK-3394,1 51118U 22005Q   22207.86369435  .00000613  00000-0  56605-4 0  9998,2 51118  53.2172 103.0192 0001818  50.2523 309.8629 15.08829446 29329,6917.913000000001,95.438,541.035,538.52,0.0
51118.0,STARLINK-3394,PAYLOAD,2022-07-27 09:26:48,15.08833247,0.0001879,53.2174,100.6406,51.8626,308.2535,0.00013646,1.884e-05,0.0,0 STARLINK-3394,1 51118U 22005Q   22208.39361466  .00001884  00000-0  13646-3 0  9991,2 51118  53.2174 100.6406 0001879  51.8626 308.2535 15.08833247 30516,6917.901,95.438,541.066,538.466,0.0
51118.0,STARLINK-3394,PAYLOAD,2022-07-28 09:17:34,15.08846733,0.0001940999999999,53.2169,96.1805,53.3788,306.7382,0.00027103,4.029e-05,0.0,0 STARLINK-3394,1 51118U 22005Q   22209.38721016  .00004029  00000-0  27103-3 0  9999,2 51118  53.2169  96.1805 0001941  53.3788 306.7382 15.08846733 29557,6917.86,95.437,541.068,538.382,0.0
51118.0,STARLINK-3394,PAYLOAD,2022-07-28 17:14:30,15.08849426,0.0001940999999999,53.2168,94.6938,53.8465,306.2706,0.00029048,4.339e-05,0.0,0 STARLINK-3394,1 51118U 22005Q   22209.71840902  .00004339  00000-0  29048-3 0  9996,2 51118  53.2168  94.6938 0001941  53.8465 306.2706 15.08849426 30710,6917.852,95.437,541.059,538.374,0.0
51118.0,STARLINK-3394,PAYLOAD,2022-07-28 23:36:03,15.08840229,0.0001931,53.2168,93.5043,52.5694,307.5473,4.8449e-05,4.83e-06,0.0,0 STARLINK-3394,1 51118U 22005Q   22209.98337163  .00000483  00000-0  48449-4 0  9998,2 51118  53.2168  93.5043 0001931  52.5694 307.5473 15.08840229 30755,6917.88,95.438,541.081,538.409,0.0
51118.0,STARLINK-3394,PAYLOAD,2022-07-29 09:08:22,15.08840637,0.0001943,53.2167,91.7201,53.1856,306.9314,1.8095e-05,0.0,0.0,0 STARLINK-3394,1 51118U 22005Q   22210.38081113  .00000000  00000-0  18095-4 0  9994,2 51118  53.2167  91.7201 0001943  53.1856 306.9314 15.08840637 29703,6917.878000000002,95.438,541.0880000000002,538.399,0.0
51118.0,STARLINK-3394,PAYLOAD,2022-07-29 17:05:17,15.08843397,0.0001903,53.2168,90.2331,54.4678,305.6492,7.9215e-05,9.73e-06,0.0,0 STARLINK-3394,1 51118U 22005Q   22210.71201040  .00000973  00000-0  79215-4 0  9994,2 51118  53.2168  90.2331 0001903  54.4678 305.6492 15.08843397 29758,6917.87,95.437,541.0509999999998,538.419,0.0
51118.0,STARLINK-3394,PAYLOAD,2022-07-30 01:02:13,15.08846641,0.0001918,53.2167,88.7462,54.2248,305.8923,7.1166e-05,8.45e-06,0.0,0 STARLINK-3394,1 51118U 22005Q   22211.04320797  .00000845  00000-0  71166-4 0  9997,2 51118  53.2167  88.7462 0001918  54.2248 305.8923 15.08846641 30917,6917.86,95.437,541.052,538.398,0.0
51118.0,STARLINK-3394,PAYLOAD,2022-07-30 08:59:08,15.08847986,0.0001916,53.2167,87.2595,55.232,304.8852,8.515399999999999e-05,1.068e-05,0.0,0 STARLINK-3394,1 51118U 22005Q   22211.37440596  .00001068  00000-0  85154-4 0  9993,2 51118  53.2167  87.2595 0001916  55.2320 304.8852 15.08847986 29852,6917.856,95.437,541.0459999999998,538.396,0.0
51118.0,STARLINK-3394,PAYLOAD,2022-07-30 18:31:27,15.08837308,0.0001874,53.2165,85.4752,56.3816,303.7355,-4.2765e-05,-9.69e-06,0.0,0 STARLINK-3394,1 51118U 22005Q   22211.77185121 -.00000969  00000-0 -42765-4 0  9999,2 51118  53.2165  85.4752 0001874  56.3816 303.7355 15.08837308 31025,6917.889,95.438,541.05,538.457,0.0
51118.0,STARLINK-3394,PAYLOAD,2022-07-30 21:42:14,15.08836557,0.0001859,53.2176,84.8801,56.6107,303.5062,-2.5917e-05,-7.01e-06,0.0,0 STARLINK-3394,1 51118U 22005Q   22211.90433575 -.00000701  00000-0 -25917-4 0  9997,2 51118  53.2176  84.8801 0001859  56.6107 303.5062 15.08836557 29939,6917.891,95.438,541.0419999999998,538.47,0.0
51118.0,STARLINK-3394,PAYLOAD,2022-07-31 08:49:56,15.08834943,0.0001896,53.2178,82.7987,56.9999,303.1176,3.1396e-05,2.11e-06,0.0,0 STARLINK-3394,1 51118U 22005Q   22212.36801641  .00000211  00000-0  31396-4 0  9993,2 51118  53.2178  82.7987 0001896  56.9999 303.1176 15.08834943 30005,6917.896,95.438,541.072,538.4490000000002,0.0
51118.0,STARLINK-3394,PAYLOAD,2022-07-31 18:22:15,15.08838328,0.0001906,53.2177,81.0144,56.8628,303.2547,4.3254e-05,4e-06,0.0,0 STARLINK-3394,1 51118U 22005Q   22212.76545464  .00000400  00000-0  43254-4 0  9991,2 51118  53.2177  81.0144 0001906  56.8628 303.2547 15.08838328 30061,6917.885,95.438,541.069,538.432,0.0
51118.0,STARLINK-3394,PAYLOAD,2022-08-01 00:43:47,15.08841512,0.0001911,53.2177,79.8248,57.7759,302.3418,3.3929e-05,2.52e-06,0.0,0 STARLINK-3394,1 51118U 22005Q   22213.03041273  .00000252  00000-0  33929-4 0  9994,2 51118  53.2177  79.8248 0001911  57.7759 302.3418 15.08841512 31216,6917.876,95.437,541.063,538.419,0.0
51118.0,STARLINK-3394,PAYLOAD,2022-08-01 08:40:43,15.0884396,0.000192,53.2178,78.33800000000002,58.06,302.0578,4.798300000000001e-05,4.76e-06,0.0,0 STARLINK-3394,1 51118U 22005Q   22213.36161043  .00000476  00000-0  47983-4 0  9991,2 51118  53.2178  78.3380 0001920  58.0600 302.0578 15.08843960 30152,6917.868,95.437,541.062,538.405,0.0
51118.0,STARLINK-3394,PAYLOAD,2022-08-01 21:23:47,15.08844025,0.000192,53.2177,75.959,58.4922,301.6257,0.0001236,1.6800000000000002e-05,0.0,0 STARLINK-3394,1 51118U 22005Q   22213.89152748  .00001680  00000-0  12360-3 0  9999,2 51118  53.2177  75.9590 0001920  58.4922 301.6257 15.08844025 30239,6917.868,95.437,541.061,538.405,0.0
